[{"OBJECT_NAME":"STARLINK-30575","OBJECT_ID":"2023-158B","EPOCH":"2026-03-08T16:00:00.999936","MEAN_MOTION":15.27562199,"ECCENTRICITY":0.00017382,"INCLINATION":43.0037,"RA_OF_ASC_NODE":33.1816,"ARG_OF_PERICENTER":277.6806,"MEAN_ANOMALY":288.0882,"EPHEMERIS_TYPE":0,"CLASSIFICATION_TYPE":"U","NORAD_CAT_ID":58052,"ELEMENT_SET_NO":999,"REV_AT_EPOCH":574,"BSTAR":0.00025284576,"MEAN_MOTION_DOT":6.698e-5,"MEAN_MOTION_DDOT":0},{"OBJECT_NAME":"OBJECT P","OBJECT_ID":"2018-099P","EPOCH":"2026-03-09T16:35:55.790016","MEAN_MOTION":15.30834106,"ECCENTRICITY":0.00076856,"INCLINATION":97.4366,"RA_OF_ASC_NODE":131.9195,"ARG_OF_PERICENTER":276.7627,"MEAN_ANOMALY":83.2739,"EPHEMERIS_TYPE":0,"CLASSIFICATION_TYPE":"U","NORAD_CAT_ID":43771,"ELEMENT_SET_NO":999,"REV_AT_EPOCH":39830,"BSTAR":0.00063632878,"MEAN_MOTION_DOT":0.00018926,"MEAN_MOTION_DDOT":0}]
